{"type": "FeatureCollection", "features": [ {"type": "Feature", "properties": {"norad_id": 30196, "name": "FENGYUN 1C DEB", "group": "fengyun-1c-debris", "lat": -81.27592072568218, "lon": 153.08086274480848, "alt_km": 875.4260135336926, "timestamp": "2025-12-04T05:42:43.647548+00:00", "meta": {"OBJECT_NAME": "FENGYUN 1C DEB", "OBJECT_ID": "1999-025VD", "EPOCH": "2025-12-03T05:00:35.218080", "MEAN_MOTION": 14.25842743, "ECCENTRICITY": 0.00870639, "INCLINATION": 98.6406, "RA_OF_ASC_NODE": 69.7939, "ARG_OF_PERICENTER": 90.6041, "MEAN_ANOMALY": 300.3805, "EPHEMERIS_TYPE": 0, "CLASSIFICATION_TYPE": "U", "NORAD_CAT_ID": 30196, "ELEMENT_SET_NO": 999, "REV_AT_EPOCH": 98229, "BSTAR": 8.1433967e-05, "MEAN_MOTION_DOT": 1.59e-06, "MEAN_MOTION_DDOT": 0}, "tle": {"line1": "1 30196U 99025VD  25337.20874095  .00000159  00000+0  81434-4 0  9997", "line2": "2 30196  98.6406  69.7939 0087063  90.6041 300.3805 14.25842743982290"}}, "geometry": {"type": "Point", "coordinates": [153.08086274480848, -81.27592072568218]}}, {"type": "Feature", "properties": {"norad_id": 30197, "name": "FENGYUN 1C DEB", "group": "fengyun-1c-debris", "lat": 49.90707478086364, "lon": 94.04020043885977, "alt_km": 777.8858236518545, "timestamp": "2025-12-04T05:42:43.647558+00:00", "meta": {"OBJECT_NAME": "FENGYUN 1C DEB", "OBJECT_ID": "1999-025VE", "EPOCH": "2025-12-03T19:23:07.622304", "MEAN_MOTION": 14.37120197, "ECCENTRICITY": 0.00569511, "INCLINATION": 98.9376, "RA_OF_ASC_NODE": 262.8198, "ARG_OF_PERICENTER": 241.5583, "MEAN_ANOMALY": 183.3929, "EPHEMERIS_TYPE": 0, "CLASSIFICATION_TYPE": "U", "NORAD_CAT_ID": 30197, "ELEMENT_SET_NO": 999, "REV_AT_EPOCH": 98358, "BSTAR": 0.0013391997, "MEAN_MOTION_DOT": 4.008e-05, "MEAN_MOTION_DDOT": 0}, "tle": {"line1": "1 30197U 99025VE  25337.80772711  .00004008  00000+0  13392-2 0  9999", "line2": "2 30197  98.9376 262.8198 0056951 241.5583 183.3929 14.37120197983587"}}, "geometry": {"type": "Point", "coordinates": [94.04020043885977, 49.90707478086364]}}, {"type": "Feature", "properties": {"norad_id": 30198, "name": "FENGYUN 1C DEB", "group": "fengyun-1c-debris", "lat": 42.655098546228196, "lon": 101.38077483926554, "alt_km": 797.8655362222316, "timestamp": "2025-12-04T05:42:43.647568+00:00", "meta": {"OBJECT_NAME": "FENGYUN 1C DEB", "OBJECT_ID": "1999-025VF", "EPOCH": "2025-12-03T15:10:38.180640", "MEAN_MOTION": 14.50095071, "ECCENTRICITY": 0.01071439, "INCLINATION": 98.4479, "RA_OF_ASC_NODE": 108.6435, "ARG_OF_PERICENTER": 225.9603, "MEAN_ANOMALY": 257.6322, "EPHEMERIS_TYPE": 0, "CLASSIFICATION_TYPE": "U", "NORAD_CAT_ID": 30198, "ELEMENT_SET_NO": 999, "REV_AT_EPOCH": 98375, "BSTAR": 0.0030626683, "MEAN_MOTION_DOT": 0.00012764, "MEAN_MOTION_DDOT": 0}, "tle": {"line1": "1 30198U 99025VF  25337.63238635  .00012764  00000+0  30627-2 0  9991", "line2": "2 30198  98.4479 108.6435 0107143 225.9603 257.6322 14.50095071983755"}}, "geometry": {"type": "Point", "coordinates": [101.38077483926554, 42.655098546228196]}}, {"type": "Feature", "properties": {"norad_id": 30199, "name": "FENGYUN 1C DEB", "group": "fengyun-1c-debris", "lat": 60.15450342887573, "lon": -12.731821760711545, "alt_km": 754.3428502590341, "timestamp": "2025-12-04T05:42:43.647579+00:00", "meta": {"OBJECT_NAME": "FENGYUN 1C DEB", "OBJECT_ID": "1999-025VG", "EPOCH": "2025-12-03T13:29:40.330176", "MEAN_MOTION": 14.38422229, "ECCENTRICITY": 0.00780901, "INCLINATION": 98.3857, "RA_OF_ASC_NODE": 1.5056, "ARG_OF_PERICENTER": 336.4778, "MEAN_ANOMALY": 186.791, "EPHEMERIS_TYPE": 0, "CLASSIFICATION_TYPE": "U", "NORAD_CAT_ID": 30199, "ELEMENT_SET_NO": 999, "REV_AT_EPOCH": 98278, "BSTAR": 0.0014587392, "MEAN_MOTION_DOT": 4.568e-05, "MEAN_MOTION_DDOT": 0}, "tle": {"line1": "1 30199U 99025VG  25337.56227234  .00004568  00000+0  14587-2 0  9997", "line2": "2 30199  98.3857   1.5056 0078090 336.4778 186.7910 14.38422229982786"}}, "geometry": {"type": "Point", "coordinates": [-12.731821760711545, 60.15450342887573]}}, {"type": "Feature", "properties": {"norad_id": 30200, "name": "FENGYUN 1C DEB", "group": "fengyun-1c-debris", "lat": 10.390520111320143, "lon": -5.609516485208043, "alt_km": 744.5685476788376, "timestamp": "2025-12-04T05:42:43.647589+00:00", "meta": {"OBJECT_NAME": "FENGYUN 1C DEB", "OBJECT_ID": "1999-025VH", "EPOCH": "2025-12-03T12:02:47.822496", "MEAN_MOTION": 14.22265285, "ECCENTRICITY": 0.01474155, "INCLINATION": 99.1134, "RA_OF_ASC_NODE": 171.9431, "ARG_OF_PERICENTER": 125.5269, "MEAN_ANOMALY": 235.9758, "EPHEMERIS_TYPE": 0, "CLASSIFICATION_TYPE": "U", "NORAD_CAT_ID": 30200, "ELEMENT_SET_NO": 999, "REV_AT_EPOCH": 97851, "BSTAR": 0.0002214041, "MEAN_MOTION_DOT": 5.03e-06, "MEAN_MOTION_DDOT": 0}, "tle": {"line1": "1 30200U 99025VH  25337.50194239  .00000503  00000+0  22140-3 0  9992", "line2": "2 30200  99.1134 171.9431 0147415 125.5269 235.9758 14.22265285978518"}}, "geometry": {"type": "Point", "coordinates": [-5.609516485208043, 10.390520111320143]}}, {"type": "Feature", "properties": {"norad_id": 30201, "name": "FENGYUN 1C DEB", "group": "fengyun-1c-debris", "lat": 57.392959817516456, "lon": 96.87304948594728, "alt_km": 806.7117393221424, "timestamp": "2025-12-04T05:42:43.647599+00:00", "meta": {"OBJECT_NAME": "FENGYUN 1C DEB", "OBJECT_ID": "1999-025VJ", "EPOCH": "2025-12-02T21:22:25.867488", "MEAN_MOTION": 14.22908745, "ECCENTRICITY": 0.00288934, "INCLINATION": 99.4007, "RA_OF_ASC_NODE": 110.4453, "ARG_OF_PERICENTER": 341.2921, "MEAN_ANOMALY": 18.7191, "EPHEMERIS_TYPE": 0, "CLASSIFICATION_TYPE": "U", "NORAD_CAT_ID": 30201, "ELEMENT_SET_NO": 999, "REV_AT_EPOCH": 97687, "BSTAR": 0.00057545116, "MEAN_MOTION_DOT": 1.249e-05, "MEAN_MOTION_DDOT": 0}, "tle": {"line1": "1 30201U 99025VJ  25336.89057717  .00001249  00000+0  57545-3 0  9998", "line2": "2 30201  99.4007 110.4453 0028893 341.2921  18.7191 14.22908745976873"}}, "geometry": {"type": "Point", "coordinates": [96.87304948594728, 57.392959817516456]}}, {"type": "Feature", "properties": {"norad_id": 30202, "name": "FENGYUN 1C DEB", "group": "fengyun-1c-debris", "lat": -41.67842798149922, "lon": -112.50039676423663, "alt_km": 745.8333740963762, "timestamp": "2025-12-04T05:42:43.647609+00:00", "meta": {"OBJECT_NAME": "FENGYUN 1C DEB", "OBJECT_ID": "1999-025VK", "EPOCH": "2025-12-03T18:46:23.287872", "MEAN_MOTION": 14.5209213, "ECCENTRICITY": 0.00396875, "INCLINATION": 98.6413, "RA_OF_ASC_NODE": 74.8119, "ARG_OF_PERICENTER": 86.7424, "MEAN_ANOMALY": 273.831, "EPHEMERIS_TYPE": 0, "CLASSIFICATION_TYPE": "U", "NORAD_CAT_ID": 30202, "ELEMENT_SET_NO": 999, "REV_AT_EPOCH": 98159, "BSTAR": 0.0035923737, "MEAN_MOTION_DOT": 0.00014671, "MEAN_MOTION_DDOT": 0}, "tle": {"line1": "1 30202U 99025VK  25337.78221398  .00014671  00000+0  35924-2 0  9995", "line2": "2 30202  98.6413  74.8119 0039687  86.7424 273.8310 14.52092130981597"}}, "geometry": {"type": "Point", "coordinates": [-112.50039676423663, -41.67842798149922]}}, {"type": "Feature", "properties": {"norad_id": 30205, "name": "FENGYUN 1C DEB", "group": "fengyun-1c-debris", "lat": 73.65399453301332, "lon": 57.17969359768145, "alt_km": 980.2709166135865, "timestamp": "2025-12-04T05:42:43.647620+00:00", "meta": {"OBJECT_NAME": "FENGYUN 1C DEB", "OBJECT_ID": "1999-025VN", "EPOCH": "2025-12-03T14:06:05.284224", "MEAN_MOTION": 13.88028009, "ECCENTRICITY": 0.01206639, "INCLINATION": 98.9968, "RA_OF_ASC_NODE": 89.2473, "ARG_OF_PERICENTER": 204.5857, "MEAN_ANOMALY": 224.4124, "EPHEMERIS_TYPE": 0, "CLASSIFICATION_TYPE": "U", "NORAD_CAT_ID": 30205, "ELEMENT_SET_NO": 999, "REV_AT_EPOCH": 95511, "BSTAR": 0.00052660502, "MEAN_MOTION_DOT": 6.22e-06, "MEAN_MOTION_DDOT": 0}, "tle": {"line1": "1 30205U 99025VN  25337.58756116  .00000622  00000+0  52661-3 0  9996", "line2": "2 30205  98.9968  89.2473 0120663 204.5857 224.4124 13.88028009955112"}}, "geometry": {"type": "Point", "coordinates": [57.17969359768145, 73.65399453301332]}}, {"type": "Feature", "properties": {"norad_id": 30206, "name": "FENGYUN 1C DEB", "group": "fengyun-1c-debris", "lat": -61.01251955653444, "lon": -7.1483048707302155, "alt_km": 793.1975085254162, "timestamp": "2025-12-04T05:42:43.647630+00:00", "meta": {"OBJECT_NAME": "FENGYUN 1C DEB", "OBJECT_ID": "1999-025VP", "EPOCH": "2025-12-02T22:30:44.908992", "MEAN_MOTION": 14.4909082, "ECCENTRICITY": 0.01465432, "INCLINATION": 98.2311, "RA_OF_ASC_NODE": 336.4376, "ARG_OF_PERICENTER": 66.1014, "MEAN_ANOMALY": 295.5454, "EPHEMERIS_TYPE": 0, "CLASSIFICATION_TYPE": "U", "NORAD_CAT_ID": 30206, "ELEMENT_SET_NO": 999, "REV_AT_EPOCH": 99259, "BSTAR": 0.00057072954, "MEAN_MOTION_DOT": 2.438e-05, "MEAN_MOTION_DDOT": 0}, "tle": {"line1": "1 30206U 99025VP  25336.93801978  .00002438  00000+0  57073-3 0  9991", "line2": "2 30206  98.2311 336.4376 0146543  66.1014 295.5454 14.49090820992595"}}, "geometry": {"type": "Point", "coordinates": [-7.1483048707302155, -61.01251955653444]}}, {"type": "Feature", "properties": {"norad_id": 30207, "name": "FENGYUN 1C DEB", "group": "fengyun-1c-debris", "lat": -69.05125069699255, "lon": -113.47214507158847, "alt_km": 934.4731563740506, "timestamp": "2025-12-04T05:42:43.647640+00:00", "meta": {"OBJECT_NAME": "FENGYUN 1C DEB", "OBJECT_ID": "1999-025VQ", "EPOCH": "2025-12-03T07:57:24.710400", "MEAN_MOTION": 13.79124285, "ECCENTRICITY": 0.0260237, "INCLINATION": 98.574, "RA_OF_ASC_NODE": 88.9142, "ARG_OF_PERICENTER": 173.7657, "MEAN_ANOMALY": 256.0565, "EPHEMERIS_TYPE": 0, "CLASSIFICATION_TYPE": "U", "NORAD_CAT_ID": 30207, "ELEMENT_SET_NO": 999, "REV_AT_EPOCH": 94933, "BSTAR": 0.0004638, "MEAN_MOTION_DOT": 5.74e-06, "MEAN_MOTION_DDOT": 0}, "tle": {"line1": "1 30207U 99025VQ  25337.33153600  .00000574  00000+0  46380-3 0  9997", "line2": "2 30207  98.5740  88.9142 0260237 173.7657 256.0565 13.79124285949334"}}, "geometry": {"type": "Point", "coordinates": [-113.47214507158847, -69.05125069699255]}}]}